[{"OBJECT_NAME":"STARLINK-33916","OBJECT_ID":"2025-091T","EPOCH":"2026-03-09T23:33:04.692384","MEAN_MOTION":15.27600279,"ECCENTRICITY":0.00024492,"INCLINATION":43.0063,"RA_OF_ASC_NODE":51.1496,"ARG_OF_PERICENTER":273.9954,"MEAN_ANOMALY":86.0617,"EPHEMERIS_TYPE":0,"CLASSIFICATION_TYPE":"U","NORAD_CAT_ID":63792,"ELEMENT_SET_NO":999,"REV_AT_EPOCH":4894,"BSTAR":0.0011538871,"MEAN_MOTION_DOT":0.00031647,"MEAN_MOTION_DDOT":0},{"OBJECT_NAME":"KUIPER-00276","OBJECT_ID":"2026-030AG","EPOCH":"2026-03-09T22:00:01.999584","MEAN_MOTION":15.30162454,"ECCENTRICITY":0.00186471,"INCLINATION":51.8824,"RA_OF_ASC_NODE":218.7283,"ARG_OF_PERICENTER":66.9346,"MEAN_ANOMALY":101.1527,"EPHEMERIS_TYPE":0,"CLASSIFICATION_TYPE":"U","NORAD_CAT_ID":67794,"ELEMENT_SET_NO":999,"REV_AT_EPOCH":482,"BSTAR":0.0021152378,"MEAN_MOTION_DOT":0.00063116,"MEAN_MOTION_DDOT":0}]
